{"type": "FeatureCollection", "features": [ {"type": "Feature", "properties": {"norad_id": 66737, "name": "FLOCK 4H-34", "group": "last-30-days", "lat": 32.245524460827276, "lon": 67.60763298784872, "alt_km": 510.57810378699014, "timestamp": "2025-12-26T18:39:30.996914+00:00", "meta": {"OBJECT_NAME": "FLOCK 4H-34", "OBJECT_ID": "2025-276BZ", "EPOCH": "2025-12-26T13:46:12.447552", "MEAN_MOTION": 15.18194869, "ECCENTRICITY": 0.00027681, "INCLINATION": 97.4432, "RA_OF_ASC_NODE": 72.138, "ARG_OF_PERICENTER": 158.6878, "MEAN_ANOMALY": 201.4471, "EPHEMERIS_TYPE": 0, "CLASSIFICATION_TYPE": "U", "NORAD_CAT_ID": 66737, "ELEMENT_SET_NO": 999, "REV_AT_EPOCH": 347, "BSTAR": 0.00032612626, "MEAN_MOTION_DOT": 6.603e-05, "MEAN_MOTION_DDOT": 0}, "tle": {"line1": "1 66737U 25276BZ  25360.57375518  .00006603  00000+0  32613-3 0  9990", "line2": "2 66737  97.4432  72.1380 0002768 158.6878 201.4471 15.18194869  3472"}}, "geometry": {"type": "Point", "coordinates": [67.60763298784872, 32.245524460827276]}}, {"type": "Feature", "properties": {"norad_id": 66738, "name": "FLOCK 4H-35", "group": "last-30-days", "lat": 42.37261642368638, "lon": 65.48167728671446, "alt_km": 507.823739826742, "timestamp": "2025-12-26T18:39:30.996924+00:00", "meta": {"OBJECT_NAME": "FLOCK 4H-35", "OBJECT_ID": "2025-276CA", "EPOCH": "2025-12-26T10:33:43.029504", "MEAN_MOTION": 15.18290649, "ECCENTRICITY": 0.00026953, "INCLINATION": 97.4396, "RA_OF_ASC_NODE": 71.9961, "ARG_OF_PERICENTER": 141.5195, "MEAN_ANOMALY": 218.6232, "EPHEMERIS_TYPE": 0, "CLASSIFICATION_TYPE": "U", "NORAD_CAT_ID": 66738, "ELEMENT_SET_NO": 999, "REV_AT_EPOCH": 349, "BSTAR": 0.00046478847, "MEAN_MOTION_DOT": 9.468e-05, "MEAN_MOTION_DDOT": 0}, "tle": {"line1": "1 66738U 25276CA  25360.44008136  .00009468  00000+0  46479-3 0  9993", "line2": "2 66738  97.4396  71.9961 0002695 141.5195 218.6232 15.18290649  3496"}}, "geometry": {"type": "Point", "coordinates": [65.48167728671446, 42.37261642368638]}}, {"type": "Feature", "properties": {"norad_id": 66739, "name": "FLOCK 4H-36", "group": "last-30-days", "lat": 17.04155013949733, "lon": 70.0388833190201, "alt_km": 514.0568347438866, "timestamp": "2025-12-26T18:39:30.996937+00:00", "meta": {"OBJECT_NAME": "FLOCK 4H-36", "OBJECT_ID": "2025-276CB", "EPOCH": "2025-12-26T13:50:13.511328", "MEAN_MOTION": 15.18039614, "ECCENTRICITY": 0.00027005, "INCLINATION": 97.4441, "RA_OF_ASC_NODE": 72.1382, "ARG_OF_PERICENTER": 172.4846, "MEAN_ANOMALY": 187.6429, "EPHEMERIS_TYPE": 0, "CLASSIFICATION_TYPE": "U", "NORAD_CAT_ID": 66739, "ELEMENT_SET_NO": 999, "REV_AT_EPOCH": 422, "BSTAR": 0.00035460034, "MEAN_MOTION_DOT": 7.153e-05, "MEAN_MOTION_DDOT": 0}, "tle": {"line1": "1 66739U 25276CB  25360.57654527  .00007153  00000+0  35460-3 0  9996", "line2": "2 66739  97.4441  72.1382 0002700 172.4846 187.6429 15.18039614  4229"}}, "geometry": {"type": "Point", "coordinates": [70.0388833190201, 17.04155013949733]}}, {"type": "Feature", "properties": {"norad_id": 66740, "name": "TRANSPORTER-15CC", "group": "last-30-days", "lat": -12.656795376445839, "lon": 73.99411836740207, "alt_km": 518.191381193692, "timestamp": "2025-12-26T18:39:30.996948+00:00", "meta": {"OBJECT_NAME": "TRANSPORTER-15CC", "OBJECT_ID": "2025-276CC", "EPOCH": "2025-12-26T13:58:04.484640", "MEAN_MOTION": 15.17768196, "ECCENTRICITY": 0.00023333, "INCLINATION": 97.4404, "RA_OF_ASC_NODE": 72.1203, "ARG_OF_PERICENTER": 217.6716, "MEAN_ANOMALY": 142.4354, "EPHEMERIS_TYPE": 0, "CLASSIFICATION_TYPE": "U", "NORAD_CAT_ID": 66740, "ELEMENT_SET_NO": 999, "REV_AT_EPOCH": 422, "BSTAR": 0.00040782417, "MEAN_MOTION_DOT": 8.174e-05, "MEAN_MOTION_DDOT": 0}, "tle": {"line1": "1 66740U 25276CC  25360.58199635  .00008174  00000+0  40782-3 0  9990", "line2": "2 66740  97.4404  72.1203 0002333 217.6716 142.4354 15.17768196  4221"}}, "geometry": {"type": "Point", "coordinates": [73.99411836740207, -12.656795376445839]}}, {"type": "Feature", "properties": {"norad_id": 66741, "name": "TRANSPORTER-15CD", "group": "last-30-days", "lat": -19.320832094424965, "lon": 74.92707779424171, "alt_km": 518.7228605662767, "timestamp": "2025-12-26T18:39:30.996960+00:00", "meta": {"OBJECT_NAME": "TRANSPORTER-15CD", "OBJECT_ID": "2025-276CD", "EPOCH": "2025-12-26T10:49:56.414496", "MEAN_MOTION": 15.17653296, "ECCENTRICITY": 0.00012403, "INCLINATION": 97.4402, "RA_OF_ASC_NODE": 71.9806, "ARG_OF_PERICENTER": 208.7727, "MEAN_ANOMALY": 151.3438, "EPHEMERIS_TYPE": 0, "CLASSIFICATION_TYPE": "U", "NORAD_CAT_ID": 66741, "ELEMENT_SET_NO": 999, "REV_AT_EPOCH": 420, "BSTAR": 0.00019391174, "MEAN_MOTION_DOT": 3.837e-05, "MEAN_MOTION_DDOT": 0}, "tle": {"line1": "1 66741U 25276CD  25360.45134739  .00003837  00000+0  19391-3 0  9994", "line2": "2 66741  97.4402  71.9806 0001240 208.7727 151.3438 15.17653296  4209"}}, "geometry": {"type": "Point", "coordinates": [74.92707779424171, -19.320832094424965]}}, {"type": "Feature", "properties": {"norad_id": 66742, "name": "TRANSPORTER-15CE", "group": "last-30-days", "lat": -9.909060421216525, "lon": 73.6105602561755, "alt_km": 518.3164614908919, "timestamp": "2025-12-26T18:39:30.996970+00:00", "meta": {"OBJECT_NAME": "TRANSPORTER-15CE", "OBJECT_ID": "2025-276CE", "EPOCH": "2025-12-26T13:57:20.308320", "MEAN_MOTION": 15.17741525, "ECCENTRICITY": 0.00020045, "INCLINATION": 97.4396, "RA_OF_ASC_NODE": 72.11, "ARG_OF_PERICENTER": 175.6175, "MEAN_ANOMALY": 184.5077, "EPHEMERIS_TYPE": 0, "CLASSIFICATION_TYPE": "U", "NORAD_CAT_ID": 66742, "ELEMENT_SET_NO": 999, "REV_AT_EPOCH": 422, "BSTAR": 0.00031778373, "MEAN_MOTION_DOT": 6.348e-05, "MEAN_MOTION_DDOT": 0}, "tle": {"line1": "1 66742U 25276CE  25360.58148505  .00006348  00000+0  31778-3 0  9998", "line2": "2 66742  97.4396  72.1100 0002004 175.6175 184.5077 15.17741525  4222"}}, "geometry": {"type": "Point", "coordinates": [73.6105602561755, -9.909060421216525]}}, {"type": "Feature", "properties": {"norad_id": 66743, "name": "TRANSPORTER-15CF", "group": "last-30-days", "lat": -73.64618253809759, "lon": -134.18196678259432, "alt_km": 596.5564605437457, "timestamp": "2025-12-26T18:39:30.996980+00:00", "meta": {"OBJECT_NAME": "TRANSPORTER-15CF", "OBJECT_ID": "2025-276CF", "EPOCH": "2025-12-25T04:50:49.043328", "MEAN_MOTION": 15.11484429, "ECCENTRICITY": 0.0034918, "INCLINATION": 97.4397, "RA_OF_ASC_NODE": 70.743, "ARG_OF_PERICENTER": 109.5161, "MEAN_ANOMALY": 250.9846, "EPHEMERIS_TYPE": 0, "CLASSIFICATION_TYPE": "U", "NORAD_CAT_ID": 66743, "ELEMENT_SET_NO": 999, "REV_AT_EPOCH": 401, "BSTAR": -0.23724, "MEAN_MOTION_DOT": -0.03580195, "MEAN_MOTION_DDOT": 0}, "tle": {"line1": "1 66743U 25276CF  25359.20195652 -.03580195  00000+0 -23724+0 0  9991", "line2": "2 66743  97.4397  70.7430 0034918 109.5161 250.9846 15.11484429  4014"}}, "geometry": {"type": "Point", "coordinates": [-134.18196678259432, -73.64618253809759]}}, {"type": "Feature", "properties": {"norad_id": 66744, "name": "TRANSPORTER-15CG", "group": "last-30-days", "lat": -3.5490653987673513, "lon": 72.7298663492271, "alt_km": 522.1409968467906, "timestamp": "2025-12-26T18:39:30.996990+00:00", "meta": {"OBJECT_NAME": "TRANSPORTER-15CG", "OBJECT_ID": "2025-276CG", "EPOCH": "2025-12-25T03:09:31.796064", "MEAN_MOTION": 15.19341003, "ECCENTRICITY": 0.00243198, "INCLINATION": 97.3868, "RA_OF_ASC_NODE": 70.659, "ARG_OF_PERICENTER": 231.5349, "MEAN_ANOMALY": 128.3704, "EPHEMERIS_TYPE": 0, "CLASSIFICATION_TYPE": "U", "NORAD_CAT_ID": 66744, "ELEMENT_SET_NO": 999, "REV_AT_EPOCH": 400, "BSTAR": 0.00064815362, "MEAN_MOTION_DOT": 0.00013749, "MEAN_MOTION_DDOT": 0}, "tle": {"line1": "1 66744U 25276CG  25359.13161801  .00013749  00000+0  64815-3 0  9994", "line2": "2 66744  97.3868  70.6590 0024319 231.5349 128.3704 15.19341003  4009"}}, "geometry": {"type": "Point", "coordinates": [72.7298663492271, -3.5490653987673513]}}, {"type": "Feature", "properties": {"norad_id": 66745, "name": "TRANSPORTER-15CH", "group": "last-30-days", "lat": -35.28350930685064, "lon": 77.60116711630272, "alt_km": 520.668450965939, "timestamp": "2025-12-26T18:39:30.997000+00:00", "meta": {"OBJECT_NAME": "TRANSPORTER-15CH", "OBJECT_ID": "2025-276CH", "EPOCH": "2025-12-26T10:54:07.685568", "MEAN_MOTION": 15.17415428, "ECCENTRICITY": 0.00013433, "INCLINATION": 97.4405, "RA_OF_ASC_NODE": 71.9777, "ARG_OF_PERICENTER": 188.8102, "MEAN_ANOMALY": 171.3108, "EPHEMERIS_TYPE": 0, "CLASSIFICATION_TYPE": "U", "NORAD_CAT_ID": 66745, "ELEMENT_SET_NO": 999, "REV_AT_EPOCH": 420, "BSTAR": 0.00014806455, "MEAN_MOTION_DOT": 2.894e-05, "MEAN_MOTION_DDOT": 0}, "tle": {"line1": "1 66745U 25276CH  25360.45425562  .00002894  00000+0  14806-3 0  9993", "line2": "2 66745  97.4405  71.9777 0001343 188.8102 171.3108 15.17415428  4201"}}, "geometry": {"type": "Point", "coordinates": [77.60116711630272, -35.28350930685064]}}, {"type": "Feature", "properties": {"norad_id": 66746, "name": "TRANSPORTER-15CJ", "group": "last-30-days", "lat": -12.83039549269234, "lon": 74.01877177879499, "alt_km": 520.4638744843132, "timestamp": "2025-12-26T18:39:30.997010+00:00", "meta": {"OBJECT_NAME": "TRANSPORTER-15CJ", "OBJECT_ID": "2025-276CJ", "EPOCH": "2025-12-26T13:58:26.645376", "MEAN_MOTION": 15.19477477, "ECCENTRICITY": 0.00134495, "INCLINATION": 97.3831, "RA_OF_ASC_NODE": 72.1356, "ARG_OF_PERICENTER": 191.6618, "MEAN_ANOMALY": 168.4307, "EPHEMERIS_TYPE": 0, "CLASSIFICATION_TYPE": "U", "NORAD_CAT_ID": 66746, "ELEMENT_SET_NO": 999, "REV_AT_EPOCH": 422, "BSTAR": 0.00086619263, "MEAN_MOTION_DOT": 0.00018383, "MEAN_MOTION_DDOT": 0}, "tle": {"line1": "1 66746U 25276CJ  25360.58225284  .00018383  00000+0  86619-3 0  9998", "line2": "2 66746  97.3831  72.1356 0013449 191.6618 168.4307 15.19477477  4228"}}, "geometry": {"type": "Point", "coordinates": [74.01877177879499, -12.83039549269234]}}]}